NORAD_CAT_ID,OBJECT_NAME,OBJECT_TYPE,EPOCH,MEAN_MOTION,ECCENTRICITY,INCLINATION,RA_OF_ASC_NODE,ARG_OF_PERICENTER,MEAN_ANOMALY,BSTAR,MEAN_MOTION_DOT,MEAN_MOTION_DDOT,TLE_LINE0,TLE_LINE1,TLE_LINE2,SEMIMAJOR_AXIS,PERIOD,APOGEE,PERIGEE,DECAYED
49420.0,STARLINK-3110,PAYLOAD,2022-10-11 04:31:52,15.08835691,0.0001939,53.218,60.3906,44.3376,315.7771,-3.9513e-06,-3.51e-06,0.0,0 STARLINK-3110,1 49420U 21104N   22284.18880323 -.00000351  00000-0 -39513-5 0  9995,2 49420  53.2180  60.3906 0001939  44.3376 315.7771 15.08835691 51691,6917.894,95.438,541.1,538.4169999999998,0.0
49420.0,STARLINK-3110,PAYLOAD,2022-10-11 10:53:25,15.08827799,0.0001702,53.2182,59.1994,47.8912,312.2225,-0.00018503,-3.231e-05,0.0,0 STARLINK-3110,1 49420U 21104N   22284.45377297 -.00003231  00000-0 -18503-3 0  9990,2 49420  53.2182  59.1994 0001702  47.8912 312.2225 15.08827799 50637,6917.918000000002,95.438,540.96,538.605,0.0
49420.0,STARLINK-3110,PAYLOAD,2022-10-11 18:50:21,15.08825044,0.0001768,53.2183,57.7125,47.7266,312.3876,-0.00012763,-2.318e-05,0.0,0 STARLINK-3110,1 49420U 21104N   22284.78497527 -.00002318  00000-0 -12763-3 0  9992,2 49420  53.2183  57.7125 0001768  47.7266 312.3876 15.08825044 50680,6917.926,95.439,541.014,538.568,0.0
49420.0,STARLINK-3110,PAYLOAD,2022-10-12 09:08:49,15.08835863,0.0001865999999999,53.2183,55.0377,43.179,316.9349,3.9256e-05,3.37e-06,0.0,0 STARLINK-3110,1 49420U 21104N   22285.38112666  .00000337  00000-0  39256-4 0  9991,2 49420  53.2183  55.0377 0001866  43.1790 316.9349 15.08835863 51878,6917.893,95.438,541.049,538.467,0.0
49420.0,STARLINK-3110,PAYLOAD,2022-10-12 12:19:36,15.08829696,0.0001465999999999,53.2189,54.4402,51.5411,308.5713,-2.807e-05,-7.35e-06,0.0,0 STARLINK-3110,1 49420U 21104N   22285.51361209 -.00000735  00000-0 -28070-4 0  9991,2 49420  53.2189  54.4402 0001466  51.5411 308.5713 15.08829696 50794,6917.9119999999975,95.438,540.7909999999998,538.763,0.0
49420.0,STARLINK-3110,PAYLOAD,2022-10-13 12:10:23,15.0882453,0.000166,53.2203,49.98,36.5118,323.5987,0.00018252,2.617e-05,0.0,0 STARLINK-3110,1 49420U 21104N   22286.50721748  .00002617  00000-0  18252-3 0  9998,2 49420  53.2203  49.9800 0001660  36.5118 323.5987 15.08824530 50944,6917.928000000001,95.439,540.941,538.644,0.0
49420.0,STARLINK-3110,PAYLOAD,2022-10-13 15:21:09,15.08835659,0.0001886999999999,53.2192,49.3867,38.6065,321.5062,0.00022802,3.342e-05,0.0,0 STARLINK-3110,1 49420U 21104N   22286.63969020  .00003342  00000-0  22802-3 0  9991,2 49420  53.2192  49.3867 0001887  38.6065 321.5062 15.08835659 52064,6917.894,95.438,541.064,538.453,0.0
49420.0,STARLINK-3110,PAYLOAD,2022-10-14 12:01:10,15.08839928,0.0001979,53.2183,45.5219,38.7394,321.3739,0.00015873,2.239e-05,0.0,0 STARLINK-3110,1 49420U 21104N   22287.50081069  .00002239  00000-0  15873-3 0  9990,2 49420  53.2183  45.5219 0001979  38.7394 321.3739 15.08839928 51095,6917.880999999999,95.438,541.115,538.377,0.0
49420.0,STARLINK-3110,PAYLOAD,2022-10-15 00:44:15,15.08846662,0.0002128,53.219,43.1424,36.2272,323.8864,2.5744e-06,-2.47e-06,0.0,0 STARLINK-3110,1 49420U 21104N   22288.03073262 -.00000247  00000-0  25744-5 0  9993,2 49420  53.2190  43.1424 0002128  36.2272 323.8864 15.08846662 52270,6917.86,95.437,541.197,538.253,0.0
49420.0,STARLINK-3110,PAYLOAD,2022-10-15 11:52:00,15.0880599,0.0002073,53.2186,41.0618,40.8457,319.2691,-0.00032745,-5.491e-05,0.0,0 STARLINK-3110,1 49420U 21104N   22288.49444909 -.00005491  00000-0 -32745-3 0  9997,2 49420  53.2186  41.0618 0002073  40.8457 319.2691 15.08805990 52346,6917.984,95.44,541.283,538.415,0.0
49420.0,STARLINK-3110,PAYLOAD,2022-10-15 16:38:10,15.08800842,0.0001954,53.2187,40.1699,41.2822,318.8318,-0.00035591,-5.942e-05,0.0,0 STARLINK-3110,1 49420U 21104N   22288.69317680 -.00005942  00000-0 -35591-3 0  9997,2 49420  53.2187  40.1699 0001954  41.2822 318.8318 15.08800842 51277,6918.0,95.44,541.217,538.513,0.0
49420.0,STARLINK-3110,PAYLOAD,2022-10-16 02:10:28,15.0881829,0.0002311,53.2186,38.3856,29.154,330.9581,-0.00016958,-2.985e-05,0.0,0 STARLINK-3110,1 49420U 21104N   22289.09060602 -.00002985  00000-0 -16958-3 0  9991,2 49420  53.2186  38.3856 0002311  29.1540 330.9581 15.08818290 52432,6917.946999999999,95.439,541.41,538.2130000000002,0.0
49420.0,STARLINK-3110,PAYLOAD,2022-10-16 11:42:45,15.08842371,0.0002004,53.219,36.6018,42.4083,317.7063,5.8272e-05,6.39e-06,0.0,0 STARLINK-3110,1 49420U 21104N   22289.48802467  .00000639  00000-0  58272-4 0  9995,2 49420  53.2190  36.6018 0002004  42.4083 317.7063 15.08842371 52498,6917.873000000001,95.437,541.124,538.352,0.0
49420.0,STARLINK-3110,PAYLOAD,2022-10-16 16:28:54,15.08845377,0.0002115,53.2189,35.71,40.6633,319.4517,0.00010073,1.315e-05,0.0,0 STARLINK-3110,1 49420U 21104N   22289.68674164  .00001315  00000-0  10073-3 0  9996,2 49420  53.2189  35.7100 0002115  40.6633 319.4517 15.08845377 51426,6917.864000000001,95.437,541.192,538.266,0.0
49420.0,STARLINK-3110,PAYLOAD,2022-10-17 13:08:56,15.08825905,0.0001816,53.2194,31.8434,41.002,319.1109,0.00013784,1.906e-05,0.0,0 STARLINK-3110,1 49420U 21104N   22290.54787451  .00001906  00000-0  13784-3 0  9995,2 49420  53.2194  31.8434 0001816  41.0020 319.1109 15.08825905 52656,6917.9230000000025,95.438,541.045,538.5319999999998,0.0
49420.0,STARLINK-3110,PAYLOAD,2022-10-18 01:52:00,15.08833279,0.0001818,53.219,29.4659,42.6679,317.4454,0.00034293,5.173e-05,0.0,0 STARLINK-3110,1 49420U 21104N   22291.07778687  .00005173  00000-0  34293-3 0  9993,2 49420  53.2190  29.4659 0001818  42.6679 317.4454 15.08833279 52739,6917.901,95.438,541.024,538.508,0.0
49420.0,STARLINK-3110,PAYLOAD,2022-10-18 12:59:43,15.08836435,0.0001962,53.2193,27.3835,45.6873,314.428,-5.9742e-05,-1.239e-05,0.0,0 STARLINK-3110,1 49420U 21104N   22291.54147888 -.00001239  00000-0 -59742-4 0  9996,2 49420  53.2193  27.3835 0001962  45.6873 314.4280 15.08836435 52803,6917.891,95.438,541.114,538.399,0.0
49420.0,STARLINK-3110,PAYLOAD,2022-10-19 01:42:48,15.08843291,0.0002154,53.2195,25.0064,39.4233,320.6916,2.4433e-06,-2.49e-06,0.0,0 STARLINK-3110,1 49420U 21104N   22292.07139150 -.00000249  00000-0  24433-5 0  9997,2 49420  53.2195  25.0064 0002154  39.4233 320.6916 15.08843291 52880,6917.87,95.437,541.225,538.245,0.0
49420.0,STARLINK-3110,PAYLOAD,2022-10-19 11:15:07,15.08837042,0.0002029,53.2195,23.2219,39.0204,321.0934,3.3673e-05,2.48e-06,0.0,0 STARLINK-3110,1 49420U 21104N   22292.46883333  .00000248  00000-0  33673-4 0  9992,2 49420  53.2195  23.2219 0002029  39.0204 321.0934 15.08837042 51844,6917.889,95.438,541.158,538.351,0.0
49420.0,STARLINK-3110,PAYLOAD,2022-10-20 03:08:57,15.0884249,0.0001833,53.2189,20.2463,45.2798,314.8343,0.00010251,1.344e-05,0.0,0 STARLINK-3110,1 49420U 21104N   22293.13122379  .00001344  00000-0  10251-3 0  9997,2 49420  53.2189  20.2463 0001833  45.2798 314.8343 15.08842490 53045,6917.873000000001,95.437,541.006,538.47,0.0
49420.0,STARLINK-3110,PAYLOAD,2022-10-20 12:41:16,15.08839053,0.0001999,53.2194,18.4639,34.2522,325.8598,5.3773e-05,5.68e-06,0.0,0 STARLINK-3110,1 49420U 21104N   22293.52866817  .00000568  00000-0  53773-4 0  9996,2 49420  53.2194  18.4639 0001999  34.2522 325.8598 15.08839053 52001,6917.8830000000025,95.438,541.131,538.365,0.0
49420.0,STARLINK-3110,PAYLOAD,2022-10-20 15:52:03,15.0883896,0.0002065,53.2191,17.8687,37.473,322.6405,9.0282e-05,1.149e-05,0.0,0 STARLINK-3110,1 49420U 21104N   22293.66114707  .00001149  00000-0  90282-4 0  9997,2 49420  53.2191  17.8687 0002065  37.4730 322.6405 15.08838960 52025,6917.884,95.438,541.177,538.32,0.0
49420.0,STARLINK-3110,PAYLOAD,2022-10-21 04:35:08,15.08839285,0.0002098,53.2192,15.4907,36.7004,323.4132,1.8064e-05,-1e-08,0.0,0 STARLINK-3110,1 49420U 21104N   22294.19106838 -.00000001  00000-0  18064-4 0  9997,2 49420  53.2192  15.4907 0002098  36.7004 323.4132 15.08839285 53205,6917.8830000000025,95.438,541.1990000000002,538.2959999999998,0.0
49420.0,STARLINK-3110,PAYLOAD,2022-10-21 12:32:03,15.08845875,0.0002124,53.2192,14.0043,36.1046,324.0089,6.5807e-05,7.59e-06,0.0,0 STARLINK-3110,1 49420U 21104N   22294.52226203  .00000759  00000-0  65807-4 0  9999,2 49420  53.2192  14.0043 0002124  36.1046 324.0089 15.08845875 52154,6917.861999999999,95.437,541.197,538.258,0.0
49420.0,STARLINK-3110,PAYLOAD,2022-10-21 15:42:49,15.08842838,0.0002043,53.2189,13.4101,37.0265,323.0867,5.7055e-05,6.2e-06,0.0,0 STARLINK-3110,1 49420U 21104N   22294.65474362  .00000620  00000-0  57055-4 0  9997,2 49420  53.2189  13.4101 0002043  37.0265 323.0867 15.08842838 52172,6917.871999999999,95.437,541.15,538.323,0.0
49420.0,STARLINK-3110,PAYLOAD,2022-10-22 10:47:27,15.08840781,0.0001720999999999,53.2189,9.8417,48.5611,311.5529,-5.3032e-05,-1.132e-05,0.0,0 STARLINK-3110,1 49420U 21104N   22295.44962683 -.00001132  00000-0 -53032-4 0  9995,2 49420  53.2189   9.8417 0001721  48.5611 311.5529 15.08840781 53392,6917.878000000002,95.438,540.934,538.552,0.0
49420.0,STARLINK-3110,PAYLOAD,2022-10-22 15:33:37,15.08833121,0.0001999,53.219,8.9493,36.1927,323.92,3.4279e-05,2.57e-06,0.0,0 STARLINK-3110,1 49420U 21104N   22295.64834973  .00000257  00000-0  34279-4 0  9994,2 49420  53.2190   8.9493 0001999  36.1927 323.9200 15.08833121 52323,6917.901,95.438,541.149,538.384,0.0
49420.0,STARLINK-3110,PAYLOAD,2022-10-22 23:30:32,15.08846795,0.0002073,53.2189,7.4622,35.2569,324.8559,3.466e-05,2.64e-06,0.0,0 STARLINK-3110,1 49420U 21104N   22295.97954045  .00000264  00000-0  34660-4 0  9995,2 49420  53.2189   7.4622 0002073  35.2569 324.8559 15.08846795 53470,6917.86,95.437,541.159,538.2909999999998,0.0
49420.0,STARLINK-3110,PAYLOAD,2022-10-23 10:38:13,15.0885666,0.0002073,53.2191,5.3803,33.8862,326.2262,0.00012832,1.756e-05,0.0,0 STARLINK-3110,1 49420U 21104N   22296.44320764  .00001756  00000-0  12832-3 0  9996,2 49420  53.2191   5.3803 0002073  33.8862 326.2262 15.08856660 53548,6917.829000000002,95.437,541.129,538.26,0.0
